{
  "norad_id": 58674,
  "name": "STARLINK-31124",
  "history": [
    {
      "epoch": "2026-03-28T22:52:45.383520Z",
      "apogee_km": 484.05773111297185,
      "perigee_km": 481.9664528697331,
      "latitude_deg": 9.034771907714067e-06,
      "longitude_deg": 166.68645732449897,
      "height_km": 483.0327851122249,
      "semi_major_axis_km": 6861.149091991352,
      "eccentricity": 0.0001524,
      "inclination_deg": 43.0034,
      "raan_deg": 336.2419,
      "arg_perigee_deg": 256.5292,
      "mean_anomaly_deg": 103.539,
      "mean_motion_rev_day": 15.27592358
    }
  ]
}