{"fetched_at":"2026-03-29T16:36:15Z","count":15609,"tles":[{"name":"STARLINK-31124","line1":"1 58674U 23211H   26087.95330305  .00003822  00000+0  14830-3 0  9993","line2":"2 58674  43.0034 336.2419 0001524 256.5292 103.5390 15.27592358125418","category":"Starlink"}]}